# Made by eph2tle, compiled Feb 13 2019 14:45:51
# Last updated with 'current' THEMIS data Wed Dec 11 10:00:10 2019
#
#    The following TLEs (Two-Line Elements) were generated by fitting
# numerically-integrated ephemerides from the OEM_CARA files at
#
# http://soleil.ssl.berkeley.edu/ground_systems/products/THEMIS/THEMIS_D/
#
# to the SDP4/SGP4 models.  Each TLE is good for the interval between
# its epoch and the epoch of the subsequent TLE (usually one day).
# The maximum deviation between the numerically integrated ephemerides
# and the TLE-based ephemeris, in kilometers,  is given for each TLE
# as the "worst residual".
#
#    The above site gives data covering about 18 days.  These TLEs will
# be updated every week or so to keep them au courant.
#
#    Almost all other TLEs on this site were computed from observations.
# I've done that for the Themis objects in the past,  but they maneuver.
# Using the above ephemerides and fitting TLEs to them appears to work
# much better.  (Space-Track TLEs,  as of early 2019,  are junk.)
#
#    If you use a TLE outside the "correct" time range (between its MJD
# and that of the next TLE),  all bets are off.  I've carefully computed
# and minimized the worst error over the "correct" time frame,  but the
# ephemeris may (or may not) diverge wildly outside of it.
#
#    This fitting is done using the 'eph2tle' code packaged with Find_Orb.
# The code has details on how the TLEs were computed :
#
#    https://github.com/Bill-Gray/find_orb/eph2tle.cpp
#
#    Be warned:  the error given is that between the numerically
# integrated ephems and the TLE model.  The THEMIS ephemerides appear
# to be pretty good,  so I think (but am not sure) that in this case,
# the stated errors are close to the real errors.  But if there are
# additional errors,  you should regard the "worst residuals" shown
# below as a lower limit on how bad the TLEs are;  there's no guarantee
# that they aren't actually worse than that.
#
# Ephem range: 58505.000000 58846.000000 1.000000
# Ephemeris start: 23 Jan 2019  0:00:00
# Ephemeris end:   29 Dec 2019  0:00:00
#
# 1 NoradU COSPAR   Epoch.epoch     dn/dt/2  d2n/dt2/6 BSTAR    T El# C
# 2 NoradU Inclina RAAscNode Eccent  ArgPeri MeanAno  MeanMotion Rev# C

# Worst residual: 10.25 km
# MJD 58505.000000 (2019 Jan 22  0:00)
NORAD 30797 = 2007-004D = THEMIS D
1 30797U 07004D   19022.49919926  .00000000  00000-0  00000-0 0  4108
2 30797 005.9862 073.1038 8557381 317.4443 014.6596 00.71899919    07

# Worst residual: 15.65 km
# MJD 58506.000000 (2019 Jan 23  0:00)
NORAD 30797 = 2007-004D = THEMIS D
1 30797U 07004D   19023.49919926  .00000000  00000-0  00000-0 0  4109
2 30797 005.9933 072.9742 8559486 317.6494 273.3358 00.71873580    07

# Worst residual: 11.61 km
# MJD 58507.000000 (2019 Jan 24  0:00)
NORAD 30797 = 2007-004D = THEMIS D
1 30797U 07004D   19024.49919926  .00000000  00000-0  00000-0 0  4100
2 30797 006.0026 072.8262 8563149 317.8755 172.0078 00.71874159    08

# Worst residual: 13.72 km
# MJD 58508.000000 (2019 Jan 25  0:00)
NORAD 30797 = 2007-004D = THEMIS D
1 30797U 07004D   19025.49919926  .00000000  00000-0  00000-0 0  4101
2 30797 006.0134 072.6551 8562470 318.1398 070.6997 00.71868946    00

# Worst residual: 14.76 km
# MJD 58509.000000 (2019 Jan 26  0:00)
NORAD 30797 = 2007-004D = THEMIS D
1 30797U 07004D   19026.49919926  .00000000  00000-0  00000-0 0  4102
2 30797 006.0307 072.4426 8564406 318.4445 329.3094 00.71880521    03

# Worst residual: 11.35 km
# MJD 58510.000000 (2019 Jan 27  0:00)
NORAD 30797 = 2007-004D = THEMIS D
1 30797U 07004D   19027.49919926  .00000000  00000-0  00000-0 0  4103
2 30797 006.0456 072.2122 8566047 318.7734 227.9514 00.71865475    07

# Worst residual: 12.16 km
# MJD 58511.000000 (2019 Jan 28  0:00)
NORAD 30797 = 2007-004D = THEMIS D
1 30797U 07004D   19028.49919926  .00000000  00000-0  00000-0 0  4104
2 30797 006.0671 071.9631 8564800 319.1155 126.6284 00.71867076    02

# Worst residual: 11.54 km
# MJD 58512.000000 (2019 Jan 29  0:00)
NORAD 30797 = 2007-004D = THEMIS D
1 30797U 07004D   19029.49919926  .00000000  00000-0  00000-0 0  4105
2 30797 006.0880 071.7463 8563684 319.4207 025.2864 00.71891531    06

# Worst residual: 17.24 km
# MJD 58513.000000 (2019 Jan 30  0:00)
NORAD 30797 = 2007-004D = THEMIS D
1 30797U 07004D   19030.49919926  .00000000  00000-0  00000-0 0  4107
2 30797 006.1025 071.5559 8562970 319.6951 283.9606 00.71866527    01

# Worst residual: 5.65 km
# MJD 58514.000000 (2019 Jan 31  0:00)
NORAD 30797 = 2007-004D = THEMIS D
1 30797U 07004D   19031.49919926  .00000000  00000-0  00000-0 0  4108
2 30797 006.1136 071.4132 8565567 319.9192 182.6697 00.71884267    01

# Worst residual: 215.79 km
# MJD 58515.000000 (2019 Feb  1  0:00)
NORAD 30797 = 2007-004D = THEMIS D
1 30797U 07004D   19032.49919926  .00000000  00000-0  00000-0 0  4109
2 30797 006.1351 071.1598 8537735 320.2913 083.1278 00.73435482    08

# Worst residual: 11.04 km
# MJD 58516.000000 (2019 Feb  2  0:00)
NORAD 30797 = 2007-004D = THEMIS D
1 30797U 07004D   19033.49919926  .00000000  00000-0  00000-0 0  4100
2 30797 006.1304 071.1513 8540420 320.3390 347.8165 00.73531155    07

# Worst residual: 16.65 km
# MJD 58517.000000 (2019 Feb  3  0:00)
NORAD 30797 = 2007-004D = THEMIS D
1 30797U 07004D   19034.49919926  .00000000  00000-0  00000-0 0  4101
2 30797 006.1335 071.0504 8542598 320.5250 252.3963 00.73515378    00

# Worst residual: 11.15 km
# MJD 58518.000000 (2019 Feb  4  0:00)
NORAD 30797 = 2007-004D = THEMIS D
1 30797U 07004D   19035.49919926  .00000000  00000-0  00000-0 0  4102
2 30797 006.1531 070.9475 8544393 320.7003 157.0381 00.73521772    06

# Worst residual: 11.94 km
# MJD 58519.000000 (2019 Feb  5  0:00)
NORAD 30797 = 2007-004D = THEMIS D
1 30797U 07004D   19036.49919926  .00000000  00000-0  00000-0 0  4103
2 30797 006.1612 070.8030 8542617 320.9342 061.6435 00.73522600    08

# Worst residual: 12.06 km
# MJD 58520.000000 (2019 Feb  6  0:00)
NORAD 30797 = 2007-004D = THEMIS D
1 30797U 07004D   19037.49919926  .00000000  00000-0  00000-0 0  4104
2 30797 006.1721 070.6530 8542895 321.1682 326.2178 00.73521331    04

# Worst residual: 12.05 km
# MJD 58521.000000 (2019 Feb  7  0:00)
NORAD 30797 = 2007-004D = THEMIS D
1 30797U 07004D   19038.49919926  .00000000  00000-0  00000-0 0  4105
2 30797 006.1796 070.5160 8544986 321.3943 230.8185 00.73518464    00

# Worst residual: 17.35 km
# MJD 58522.000000 (2019 Feb  8  0:00)
NORAD 30797 = 2007-004D = THEMIS D
1 30797U 07004D   19039.49919926  .00000000  00000-0  00000-0 0  4106
2 30797 006.1852 070.4005 8521070 321.5824 138.6064 00.75226290    05

# Worst residual: 13.82 km
# MJD 58523.000000 (2019 Feb  9  0:00)
NORAD 30797 = 2007-004D = THEMIS D
1 30797U 07004D   19040.49919926  .00000000  00000-0  00000-0 0  4108
2 30797 006.1927 070.2644 8519952 321.8077 049.3712 00.75233611    07

# Worst residual: 13.68 km
# MJD 58524.000000 (2019 Feb 10  0:00)
NORAD 30797 = 2007-004D = THEMIS D
1 30797U 07004D   19041.49919926  .00000000  00000-0  00000-0 0  4109
2 30797 006.2002 070.1367 8520077 322.0218 320.1195 00.75225352    01

# Worst residual: 11.18 km
# MJD 58525.000000 (2019 Feb 11  0:00)
NORAD 30797 = 2007-004D = THEMIS D
1 30797U 07004D   19042.49919926  .00000000  00000-0  00000-0 0  4100
2 30797 006.2039 070.0292 8522087 322.2202 230.8861 00.75228245    06

# Worst residual: 19.63 km
# MJD 58526.000000 (2019 Feb 12  0:00)
NORAD 30797 = 2007-004D = THEMIS D
1 30797U 07004D   19043.49919926  .00000000  00000-0  00000-0 0  4101
2 30797 006.2134 069.8798 8522088 322.4552 141.6506 00.75224601    07

# Worst residual: 12.27 km
# MJD 58527.000000 (2019 Feb 13  0:00)
NORAD 30797 = 2007-004D = THEMIS D
1 30797U 07004D   19044.49919926  .00000000  00000-0  00000-0 0  4102
2 30797 006.2105 069.7027 8521408 322.7239 052.4339 00.75235559    06

# Worst residual: 12.21 km
# MJD 58528.000000 (2019 Feb 14  0:00)
NORAD 30797 = 2007-004D = THEMIS D
1 30797U 07004D   19045.49919926  .00000000  00000-0  00000-0 0  4103
2 30797 006.2181 069.5757 8521805 322.9443 323.1546 00.75233788    08

# Worst residual: 15.28 km
# MJD 58529.000000 (2019 Feb 15  0:00)
NORAD 30797 = 2007-004D = THEMIS D
1 30797U 07004D   19046.49919926  .00000000  00000-0  00000-0 0  4104
2 30797 006.2256 069.4349 8523818 323.1823 233.9001 00.75227637    08

# Worst residual: 15.65 km
# MJD 58530.000000 (2019 Feb 16  0:00)
NORAD 30797 = 2007-004D = THEMIS D
1 30797U 07004D   19047.49919926  .00000000  00000-0  00000-0 0  4127
2 30797 006.2399 069.2576 8523579 323.4466 144.6605 00.75230195    07

# Worst residual: 12.78 km
# MJD 58531.000000 (2019 Feb 17  0:00)
NORAD 30797 = 2007-004D = THEMIS D
1 30797U 07004D   19048.49919926  .00000000  00000-0  00000-0 0  4128
2 30797 006.2539 069.0975 8521459 323.6982 055.4091 00.75242208    00

# Worst residual: 13.97 km
# MJD 58532.000000 (2019 Feb 18  0:00)
NORAD 30797 = 2007-004D = THEMIS D
1 30797U 07004D   19049.49919926  .00000000  00000-0  00000-0 0  4129
2 30797 006.2700 068.9208 8521057 323.9603 326.1452 00.75232561    04

# Worst residual: 13.23 km
# MJD 58533.000000 (2019 Feb 19  0:00)
NORAD 30797 = 2007-004D = THEMIS D
1 30797U 07004D   19050.49919926  .00000000  00000-0  00000-0 0  4121
2 30797 006.2780 068.7945 8523813 324.1732 236.9108 00.75235865    02

# Worst residual: 16.58 km
# MJD 58534.000000 (2019 Feb 20  0:00)
NORAD 30797 = 2007-004D = THEMIS D
1 30797U 07004D   19051.49919926  .00000000  00000-0  00000-0 0  4166
2 30797 006.2932 068.6380 8524574 324.4054 147.6743 00.75225641    02

# Worst residual: 12.78 km
# MJD 58535.000000 (2019 Feb 21  0:00)
NORAD 30797 = 2007-004D = THEMIS D
1 30797U 07004D   19052.49919926  .00000000  00000-0  00000-0 0  4167
2 30797 006.3018 068.5099 8524842 324.6299 058.4383 00.75225760    06

# Worst residual: 14.34 km
# MJD 58536.000000 (2019 Feb 22  0:00)
NORAD 30797 = 2007-004D = THEMIS D
1 30797U 07004D   19053.49919926  .00000000  00000-0  00000-0 0  4168
2 30797 006.3177 068.3287 8527227 324.9076 329.1378 00.75236269    03
